NORAD_CAT_ID,OBJECT_NAME,OBJECT_TYPE,EPOCH,MEAN_MOTION,ECCENTRICITY,INCLINATION,RA_OF_ASC_NODE,ARG_OF_PERICENTER,MEAN_ANOMALY,BSTAR,MEAN_MOTION_DOT,MEAN_MOTION_DDOT,TLE_LINE0,TLE_LINE1,TLE_LINE2,SEMIMAJOR_AXIS,PERIOD,APOGEE,PERIGEE,DECAYED
53631.0,STARLINK-4599,PAYLOAD,2023-12-23 23:47:13,15.08845931,0.0001489,53.2159,255.3373,88.2146,271.9016,0.00022649,3.319e-05,0.0,0 STARLINK-4599,1 53631U 22104AV  23357.99113026  .00003319  00000-0  22649-3 0  9990,2 53631  53.2159 255.3373 0001489  88.2146 271.9016 15.08845931 73284,6917.862,95.437,540.757,538.697,0.0
53631.0,STARLINK-4599,PAYLOAD,2023-12-24 20:27:13,15.08860987,0.0001548,53.2162,251.4688,108.9703,251.1457,0.00026205,3.887e-05,0.0,0 STARLINK-4599,1 53631U 22104AV  23358.85223713  .00003887  00000-0  26205-3 0  9993,2 53631  53.2162 251.4688 0001548 108.9703 251.1457 15.08860987 73411,6917.816,95.436,540.752,538.61,0.0
53631.0,STARLINK-4599,PAYLOAD,2023-12-24 22:02:36,15.08857247,0.0001971,53.2168,251.1703,138.4861,221.6282,0.00018406,2.644e-05,0.0,0 STARLINK-4599,1 53631U 22104AV  23358.91847581  .00002644  00000-0  18406-3 0  9999,2 53631  53.2168 251.1703 0001971 138.4861 221.6282 15.08857247 74116,6917.828,95.436,541.056,538.329,0.0
53631.0,STARLINK-4599,PAYLOAD,2023-12-25 02:48:46,15.08837692,0.0001152,53.216,250.2813,94.7211,265.3913,-0.00012304,-2.245e-05,0.0,0 STARLINK-4599,1 53631U 22104AV  23359.11720554 -.00002245  00000-0 -12304-3 0  9992,2 53631  53.2160 250.2813 0001152  94.7211 265.3913 15.08837692 73458,6917.887,95.438,540.549,538.956,0.0
53631.0,STARLINK-4599,PAYLOAD,2023-12-25 21:53:24,15.08834956,0.0001254,53.2161,246.7114,91.1462,268.9674,-8.9395e-05,-1.71e-05,0.0,0 STARLINK-4599,1 53631U 22104AV  23359.91209024 -.00001710  00000-0 -89395-4 0  9995,2 53631  53.2161 246.7114 0001254  91.1462 268.9674 15.08834956 74268,6917.896,95.438,540.628,538.893,0.0
53631.0,STARLINK-4599,PAYLOAD,2023-12-26 02:39:33,15.08840069,0.0001231,53.2158,245.8182,89.265,270.8483,2.6907e-05,1.4e-06,0.0,0 STARLINK-4599,1 53631U 22104AV  23360.11080844  .00000140  00000-0  26907-4 0  9990,2 53631  53.2158 245.8182 0001231  89.2650 270.8483 15.08840069 74296,6917.88,95.438,540.597,538.894,0.0
53631.0,STARLINK-4599,PAYLOAD,2023-12-26 20:08:48,15.08831035,0.0001281,53.2156,242.5462,91.5535,268.5604,0.00024371,3.592e-05,0.0,0 STARLINK-4599,1 53631U 22104AV  23360.83945553  .00003592  00000-0  24371-3 0  9992,2 53631  53.2156 242.5462 0001281  91.5535 268.5604 15.08831035 73710,6917.908,95.438,540.659,538.887,0.0
53631.0,STARLINK-4599,PAYLOAD,2023-12-26 21:44:12,15.08833409,0.0001324,53.216,242.249,86.1086,274.0058,0.00027284,4.056e-05,0.0,0 STARLINK-4599,1 53631U 22104AV  23360.90569502  .00004056  00000-0  27284-3 0  9998,2 53631  53.2160 242.2490 0001324  86.1086 274.0058 15.08833409 74412,6917.901,95.438,540.681,538.85,0.0
53631.0,STARLINK-4599,PAYLOAD,2023-12-27 02:30:21,15.08838608,0.0001396,53.2161,241.3568,97.6469,262.4682,0.00033365,5.026e-05,0.0,0 STARLINK-4599,1 53631U 22104AV  23361.10441358  .00005026  00000-0  33365-3 0  9994,2 53631  53.2161 241.3568 0001396  97.6469 262.4682 15.08838608 74443,6917.885,95.438,540.715,538.784,0.0
53631.0,STARLINK-4599,PAYLOAD,2023-12-27 21:34:59,15.08839036,0.0001557,53.2162,237.7878,107.2131,252.9032,8.5485e-05,1.073e-05,0.0,0 STARLINK-4599,1 53631U 22104AV  23361.89929457  .00001073  00000-0  85485-4 0  9990,2 53631  53.2162 237.7878 0001557 107.2131 252.9032 15.08839036 74562,6917.883,95.438,540.825,538.671,0.0
53631.0,STARLINK-4599,PAYLOAD,2023-12-28 00:45:45,15.08840153,0.0001486,53.2155,237.1927,101.5347,258.5812,0.00012627,1.722e-05,0.0,0 STARLINK-4599,1 53631U 22104AV  23362.03177419  .00001722  00000-0  12627-3 0  9998,2 53631  53.2155 237.1927 0001486 101.5347 258.5812 15.08840153 73895,6917.88,95.438,540.773,538.717,0.0
53631.0,STARLINK-4599,PAYLOAD,2023-12-28 21:25:46,15.08840211,0.0001448,53.216,233.3269,96.3222,263.7935,-6.593e-06,-3.93e-06,0.0,0 STARLINK-4599,1 53631U 22104AV  23362.89289514 -.00000393  00000-0 -65930-5 0  9994,2 53631  53.2160 233.3269 0001448  96.3222 263.7935 15.08840211 74710,6917.88,95.438,540.746,538.743,0.0
53631.0,STARLINK-4599,PAYLOAD,2023-12-29 00:36:32,15.08842518,0.0001369,53.2158,232.735,85.2957,274.8191,2.8693e-05,1.69e-06,0.0,0 STARLINK-4599,1 53631U 22104AV  23363.02537454  .00000169  00000-0  28693-4 0  9992,2 53631  53.2158 232.7350 0001369  85.2957 274.8191 15.08842518 74736,6917.873,95.437,540.685,538.791,0.0
53631.0,STARLINK-4599,PAYLOAD,2023-12-29 19:41:10,15.08840933,0.0001421,53.2155,229.1662,85.4828,274.6326,7.9793e-05,9.82e-06,0.0,0 STARLINK-4599,1 53631U 22104AV  23363.82025646  .00000982  00000-0  79793-4 0  9995,2 53631  53.2155 229.1662 0001421  85.4828 274.6326 15.08840933 74161,6917.878,95.437,540.726,538.76,0.0
53631.0,STARLINK-4599,PAYLOAD,2023-12-29 21:16:33,15.08841763,0.0001437,53.2154,228.8689,85.282,274.8337,8.8936e-05,1.128e-05,0.0,0 STARLINK-4599,1 53631U 22104AV  23363.88649594  .00001128  00000-0  88936-4 0  9997,2 53631  53.2154 228.8689 0001437  85.2820 274.8337 15.08841763 74865,6917.875,95.437,540.734,538.746,0.0
53631.0,STARLINK-4599,PAYLOAD,2023-12-30 14:45:47,15.08842767,0.000162,53.2171,225.6016,74.3411,285.7759,0.0001066,1.409e-05,0.0,0 STARLINK-4599,1 53631U 22104AV  23364.61513817  .00001409  00000-0  10660-3 0  9997,2 53631  53.2171 225.6016 0001620  74.3411 285.7759 15.08842767 74978,6917.872,95.437,540.858,538.616,0.0
53631.0,STARLINK-4599,PAYLOAD,2023-12-30 21:07:20,15.08841503,0.0001597,53.2171,224.4112,75.8989,284.218,7.9827e-05,9.83e-06,0.0,0 STARLINK-4599,1 53631U 22104AV  23364.88009839  .00000983  00000-0  79827-4 0  9997,2 53631  53.2171 224.4112 0001597  75.8989 284.2180 15.08841503 75016,6917.876,95.437,540.846,538.636,0.0
53631.0,STARLINK-4599,PAYLOAD,2023-12-31 20:58:07,15.08841991,0.0001579,53.2168,219.9508,77.9068,282.2101,4.1666e-05,3.75e-06,0.0,0 STARLINK-4599,1 53631U 22104AV  23365.87369755  .00000375  00000-0  41666-4 0  9998,2 53631  53.2168 219.9508 0001579  77.9068 282.2101 15.08841991 75169,6917.874,95.437,540.832,538.647,0.0
53631.0,STARLINK-4599,PAYLOAD,2024-01-01 19:13:31,15.08838484,0.000152,53.2168,215.7863,98.3508,261.7656,3.1002e-05,2.05e-06,0.0,0 STARLINK-4599,1 53631U 22104AV  24001.80105853  .00000205  00000-0  31002-4 0  9991,2 53631  53.2168 215.7863 0001520  98.3508 261.7656 15.08838484 74618,6917.885,95.438,540.802,538.699,0.0
53631.0,STARLINK-4599,PAYLOAD,2024-01-01 20:48:58,15.08786576,0.0001341,53.2168,215.4895,92.2842,267.8304,-0.00040924,-6.785e-05,0.0,0 STARLINK-4599,1 53631U 22104AV  24001.86734332 -.00006785  00000-0 -40924-3 0  9990,2 53631  53.2168 215.4895 0001341  92.2842 267.8304 15.08786576 75314,6918.044,95.441,540.836,538.981,0.0
53631.0,STARLINK-4599,PAYLOAD,2024-01-01 23:59:45,15.0878502,0.0001269,53.2165,214.895,87.8159,272.2978,-0.00040959,-6.791e-05,0.0,0 STARLINK-4599,1 53631U 22104AV  24001.99982780 -.00006791  00000-0 -40959-3 0  9991,2 53631  53.2165 214.8950 0001269  87.8159 272.2978 15.08785020 74641,6918.048,95.441,540.791,539.036,0.0
53631.0,STARLINK-4599,PAYLOAD,2024-01-02 14:18:10,15.08828114,0.0001681,53.2163,212.2172,76.8715,283.2464,-1.8897e-05,-5.89e-06,0.0,0 STARLINK-4599,1 53631U 22104AV  24002.59595873 -.00000589  00000-0 -18897-4 0  9997,2 53631  53.2163 212.2172 0001681  76.8715 283.2464 15.08828114 75422,6917.917,95.438,540.945,538.619,0.0
53631.0,STARLINK-4599,PAYLOAD,2024-01-02 19:04:20,15.08829321,0.000136,53.2163,211.3249,77.0908,283.0236,-8.3042e-06,-4.2e-06,0.0,0 STARLINK-4599,1 53631U 22104AV  24002.79467876 -.00000420  00000-0 -83042-5 0  9999,2 53631  53.2163 211.3249 0001360  77.0908 283.0236 15.08829321 74760,6917.913,95.438,540.719,538.837,0.0
53631.0,STARLINK-4599,PAYLOAD,2024-01-02 20:39:43,15.08827587,0.0001375,53.2163,211.0279,74.9796,285.1348,-1.778e-05,-5.71e-06,0.0,0 STARLINK-4599,1 53631U 22104AV  24002.86092064 -.00000571  00000-0 -17780-4 0  9992,2 53631  53.2163 211.0279 0001375  74.9796 285.1348 15.08827587 75464,6917.918,95.438,540.735,538.832,0.0
53631.0,STARLINK-4599,PAYLOAD,2024-01-02 23:50:29,15.08827191,0.0001382,53.2161,210.4334,74.6191,285.4954,-1.8012e-05,-5.74e-06,0.0,0 STARLINK-4599,1 53631U 22104AV  24002.99340218 -.00000574  00000-0 -18012-4 0  9995,2 53631  53.2161 210.4334 0001382  74.6191 285.4954 15.08827191 75480,6917.92,95.438,540.741,538.828,0.0
53631.0,STARLINK-4599,PAYLOAD,2024-01-03 18:55:07,15.08835758,0.0001656,53.2161,206.8664,41.2422,318.8694,0.00012109,1.639e-05,0.0,0 STARLINK-4599,1 53631U 22104AV  24003.78827943  .00001639  00000-0  12109-3 0  9999,2 53631  53.2161 206.8664 0001656  41.2422 318.8694 15.08835758 74913,6917.893,95.438,540.904,538.613,0.0
53631.0,STARLINK-4599,PAYLOAD,2024-01-04 12:24:21,15.08840649,0.000151,53.216,203.595,54.3687,305.7445,0.00022497,3.294e-05,0.0,0 STARLINK-4599,1 53631U 22104AV  24004.51691912  .00003294  00000-0  22497-3 0  9996,2 53631  53.2160 203.5950 0001510  54.3687 305.7445 15.08840649 75714,6917.878,95.438,540.788,538.699,0.0
53631.0,STARLINK-4599,PAYLOAD,2024-01-04 18:45:54,15.08844224,0.0001513,53.216,202.4053,54.5054,305.6079,0.00018704,2.69e-05,0.0,0 STARLINK-4599,1 53631U 22104AV  24004.78187811  .00002690  00000-0  18704-3 0  9998,2 53631  53.2160 202.4053 0001513  54.5054 305.6079 15.08844224 75758,6917.867,95.437,540.779,538.686,0.0
53631.0,STARLINK-4599,PAYLOAD,2024-01-05 20:12:01,15.08888905,0.0001702,53.2151,197.6464,53.5756,306.5393,0.0005741,8.873e-05,0.0,0 STARLINK-4599,1 53631U 22104AV  24005.84168577  .00008873  00000-0  57410-3 0  9990,2 53631  53.2151 197.6464 0001702  53.5756 306.5393 15.08888905 75222,6917.731,95.434,540.773,538.419,0.0
53631.0,STARLINK-4599,PAYLOAD,2024-01-05 21:47:24,15.08888567,0.0002221,53.2154,197.3475,46.3542,313.7634,0.00056322,8.699e-05,0.0,0 STARLINK-4599,1 53631U 22104AV  24005.90792539  .00008699  00000-0  56322-3 0  9995,2 53631  53.2154 197.3475 0002221  46.3542 313.7634 15.08888567 75923,6917.732,95.434,541.133,538.061,0.0
